[
    {
        "Altitude(m)": 610399.5123662769,
        "Argument of Periapsis(deg)": 0.0,
        "Eccentricity": 0.0,
        "Inclination(deg)": 60.0,
        "Latitude(deg)": 52.11128950220975,
        "Longitude(deg)": -37.41580519960747,
        "Mean Anomaly(deg)": 65.4545,
        "RAAN(deg)": 15.0,
        "Satellite Name": "Test1 70",
        "Satellite Number": 70,
        "Semi-Major Axis(m)": 6980739.136638005,
        "Time(s)": 0
    },
    {
        "Altitude(m)": 610481.663935314,
        "Argument of Periapsis(deg)": 0.00010418945913296404,
        "Eccentricity": 0.0,
        "Inclination(deg)": 60.0,
        "Latitude(deg)": 52.47089294825452,
        "Longitude(deg)": -36.63367122241144,
        "Mean Anomaly(deg)": 66.07460614546183,
        "RAAN(deg)": 14.999579950860259,
        "Satellite Name": "Test1 70",
        "Satellite Number": 70,
        "Semi-Major Axis(m)": 6980739.136638005,
        "Time(s)": 10
    }
]